GLOBALSTAR M080 [+]     
1 38041U 11080B   24082.16480576 -.00000065  00000+0  21387-3 0  9994
2 38041  52.0088 346.0442 0001058  90.2713  74.7464 12.62270103565709
GLOBALSTAR M092 [+]     
1 38043U 11080D   24082.30980468 -.00000090  00000+0  77493-4 0  9995
2 38043  52.0106  31.3510 0000475 106.3189  57.9220 12.62277010564885
GLOBALSTAR M086 [+]     
1 38045U 11080F   24082.07244553 -.00000061  00000+0  23599-3 0  9994
2 38045  51.9896 296.6312 0001570  59.0871 106.6494 12.62268638566463
GLOBALSTAR M097 [+]     
1 39072U 13005A   24082.53758374 -.00000111  00000+0 -41839-4 0  9991
2 39072  52.0035 209.3005 0000653  82.2079 277.8862 12.62261832513854
GLOBALSTAR M093 [+]     
1 39073U 13005B   24082.51101025 -.00000102  00000+0  11041-4 0  9996
2 39073  51.9800 203.4064 0000604  75.7603 284.3331 12.62262347513721
